{"type":"FeatureCollection","metadata":{"layer":"rockhounding-research","scope":"Idaho","feature_count":1,"source":"Nick Hegyesi researched onX waypoint","source_export_date":"2026-08-31"},"features":[{"type":"Feature","geometry":{"type":"Point","coordinates":[-114.744477,43.910866]},"properties":{"id":"nick-onx-rock:geodes","name":"GEODES!","category":"geodes","summary":"Geodes and quartz crystals noted in basalt exposures near the Sawtooth / Pole Creek area.","confidence":"User-researched","source":"Nick researched onX waypoint","source_file":"onx-markups-08312026.gpx","source_export_date":"2026-08-31"}}]}
