{
  "type": "FeatureCollection",
  "metadata": {
    "layer": "old-growth-research",
    "scope": "Idaho + Oakridge, Oregon",
    "feature_count": 25,
    "source": "Nick Hegyesi researched Idaho onX waypoints + Oakridge old-growth deep research",
    "idaho_source_export_date": "2026-08-31",
    "oakridge_research_date": "2026-10-05",
    "accuracy_policy": "User-researched old-growth intelligence for MYDAHO. Source-level coordinate precision and cultural-site caveats remain explicit per feature.",
    "classification_note": "strict_old_growth=false means ecological/cultural/heritage context retained in the Old Growth research family, not a confirmed old-growth stand/tree."
  },
  "features": [
    {
      "type": "Feature",
      "geometry": {
        "type": "Point",
        "coordinates": [
          -114.683,
          43.874
        ]
      },
      "properties": {
        "id": "nick-onx-old-growth:subalp-whitebark",
        "name": "SubAlp Whitebark",
        "old_growth_relevance": "old-growth-context",
        "strict_old_growth": false,
        "species": "Whitebark pine (Pinus albicaulis); lodgepole pine; subalpine fir",
        "age": "300–700+ yr (typical for region; site unconfirmed)",
        "confidence": "Partial",
        "access": "Hwy 75 ~23 mi N of Ketchum; pull-outs at summit and Galena Overlook.",
        "summary": "Drive-to krummholz whitebark pine at Galena Summit; accessible old subalpine habitat.",
        "position_status": "source-note-caveat",
        "source": "Nick researched onX waypoint",
        "source_file": "onx-markups-08312026.gpx",
        "source_export_date": "2026-08-31"
      }
    },
    {
      "type": "Feature",
      "geometry": {
        "type": "Point",
        "coordinates": [
          -114.36,
          43.68
        ]
      },
      "properties": {
        "id": "nick-onx-old-growth:cottonwood-corridor",
        "name": "Cottonwood Corridor!",
        "old_growth_relevance": "mature-forest",
        "strict_old_growth": false,
        "species": "Black cottonwood (Populus balsamifera ssp. trichocarpa)",
        "age": "~100–150 yr (largest specimens; unconfirmed)",
        "confidence": "Partial",
        "access": "Wood River Trail through Ketchum; River Run area; year-round.",
        "summary": "Mature black-cottonwood corridor through Ketchum; culturally associated with Hemingway.",
        "position_status": "user-accepted",
        "source": "Nick researched onX waypoint",
        "source_file": "onx-markups-08312026.gpx",
        "source_export_date": "2026-08-31"
      }
    },
    {
      "type": "Feature",
      "geometry": {
        "type": "Point",
        "coordinates": [
          -114.853,
          44.12
        ]
      },
      "properties": {
        "id": "nick-onx-old-growth:redfish-lake-creek-salmon-river-riparian-corridor",
        "name": "Redfish Lake Creek / Salmon River Riparian Corridor",
        "old_growth_relevance": "riparian-context",
        "strict_old_growth": false,
        "species": "Black/narrowleaf cottonwood; Booth & Geyer willow",
        "age": "Not measured",
        "confidence": "Partial",
        "access": "FR 214 south from Stanley ~4 mi; Stanley–Redfish multi-use trail follows corridor.",
        "summary": "Intact SNRA riparian corridor with salmon, steelhead, bull trout, and rare-sedge habitat.",
        "position_status": "user-accepted",
        "source": "Nick researched onX waypoint",
        "source_file": "onx-markups-08312026.gpx",
        "source_export_date": "2026-08-31"
      }
    },
    {
      "type": "Feature",
      "geometry": {
        "type": "Point",
        "coordinates": [
          -114.239662,
          43.819856
        ]
      },
      "properties": {
        "id": "nick-onx-old-growth:ancient-limber-pines",
        "name": "Ancient Limber Pines",
        "old_growth_relevance": "ancient-tree-site",
        "strict_old_growth": true,
        "species": "Limber pine (Pinus flexilis)",
        "age": "1,500–2,000 yr (USFS/IDFG records cited in user research)",
        "confidence": "Partial",
        "access": "Visible from Trail Creek Rd near the pass; no defined trailhead for specific trees.",
        "summary": "Government documents cited in the research report limber pines east of the RNA aged at 1,500–2,000 years.",
        "position_status": "source-note-caveat",
        "source": "Nick researched onX waypoint",
        "source_file": "onx-markups-08312026.gpx",
        "source_export_date": "2026-08-31"
      }
    },
    {
      "type": "Feature",
      "geometry": {
        "type": "Point",
        "coordinates": [
          -114.362,
          43.735
        ]
      },
      "properties": {
        "id": "nick-onx-old-growth:snra-hq-north-fork-big-wood-forest",
        "name": "SNRA HQ / North Fork Big Wood Forest",
        "old_growth_relevance": "mature-old-growth",
        "strict_old_growth": true,
        "species": "Douglas-fir; lodgepole pine; aspen",
        "age": "300–500+ yr (Douglas-fir species range; site unconfirmed)",
        "confidence": "Partial",
        "access": "Hwy 75 ~8 mi N of Ketchum; SNRA HQ / North Fork Rd.",
        "summary": "Gateway forest to the SNRA with mature/old conifer stands.",
        "position_status": "source-note-caveat",
        "source": "Nick researched onX waypoint",
        "source_file": "onx-markups-08312026.gpx",
        "source_export_date": "2026-08-31"
      }
    },
    {
      "type": "Feature",
      "geometry": {
        "type": "Point",
        "coordinates": [
          -114.28,
          43.811
        ]
      },
      "properties": {
        "id": "nick-onx-old-growth:limber-whitebark",
        "name": "Limber & Whitebark",
        "old_growth_relevance": "old-growth",
        "strict_old_growth": true,
        "species": "Limber pine (Pinus flexilis); whitebark pine (Pinus albicaulis)",
        "age": "Ancient, large-diameter; no single age cited",
        "confidence": "Verified",
        "access": "Trail Creek Rd, FR 140, ford Trail Creek, then FS Trail 124 up Cold Canyon.",
        "summary": "Basin Gulch Research Natural Area: intact limber/whitebark old-growth and avalanche-maintained pygmy forest.",
        "position_status": "user-accepted",
        "source": "Nick researched onX waypoint",
        "source_file": "onx-markups-08312026.gpx",
        "source_export_date": "2026-08-31"
      }
    },
    {
      "type": "Feature",
      "geometry": {
        "type": "Point",
        "coordinates": [
          -114.77,
          44.05
        ]
      },
      "properties": {
        "id": "nick-onx-old-growth:sawtooth-valley-peatlands-rna-fens",
        "name": "Sawtooth Valley Peatlands RNA (Fens)",
        "old_growth_relevance": "ecological-context",
        "strict_old_growth": false,
        "species": "Willow; sedge; bog birch; lodgepole pine on margins",
        "age": "Not an old-tree site",
        "confidence": "Verified",
        "access": "West of Hwy 75 along moraine bases; no formal trailheads; sensitive habitat.",
        "summary": "273-acre fen complex with rare boreal plants and salmon habitat; retained as ecological context, not old growth.",
        "position_status": "user-accepted",
        "source": "Nick researched onX waypoint",
        "source_file": "onx-markups-08312026.gpx",
        "source_export_date": "2026-08-31"
      }
    },
    {
      "type": "Feature",
      "geometry": {
        "type": "Point",
        "coordinates": [
          -114.52,
          43.78
        ]
      },
      "properties": {
        "id": "nick-onx-old-growth:harriman-trail-forest-corridor-baker-prairie-creek",
        "name": "Harriman Trail Forest Corridor (Baker/Prairie Creek)",
        "old_growth_relevance": "mature-old-growth",
        "strict_old_growth": true,
        "species": "Lodgepole pine; quaking aspen; Douglas-fir",
        "age": "150–500+ yr (species range; stands unsurveyed)",
        "confidence": "Partial",
        "access": "Multiple access points off Hwy 75; non-motorized.",
        "summary": "18-mile Big Wood River corridor offering an accessible cross-section of mature valley forest.",
        "position_status": "user-accepted",
        "source": "Nick researched onX waypoint",
        "source_file": "onx-markups-08312026.gpx",
        "source_export_date": "2026-08-31"
      }
    },
    {
      "type": "Feature",
      "geometry": {
        "type": "Point",
        "coordinates": [
          -114.214,
          43.838
        ]
      },
      "properties": {
        "id": "nick-onx-old-growth:trail-creek-pass-summit",
        "name": "Trail Creek Pass Summit",
        "old_growth_relevance": "old-growth-context",
        "strict_old_growth": false,
        "species": "Whitebark pine; limber pine; subalpine fir (krummholz)",
        "age": "Several centuries plausible; no published measurement cited",
        "confidence": "Partial",
        "access": "Trail Creek Rd ~12 mi NE of Ketchum; paved then gravel; seasonal closure.",
        "summary": "Drive-to 7,896-ft pass with krummholz five-needle pines in the same old-growth zone as Basin Gulch.",
        "position_status": "user-accepted",
        "source": "Nick researched onX waypoint",
        "source_file": "onx-markups-08312026.gpx",
        "source_export_date": "2026-08-31"
      }
    },
    {
      "type": "Feature",
      "geometry": {
        "type": "Point",
        "coordinates": [
          -114.339952,
          43.71232
        ]
      },
      "properties": {
        "id": "nick-onx-old-growth:cultural-not-old-growth",
        "name": "Cultural, not old-growth.",
        "old_growth_relevance": "cultural-context",
        "strict_old_growth": false,
        "species": "Cottonwood (Populus sp.); mixed riparian",
        "age": "Mature, not ancient",
        "confidence": "Partial",
        "access": "Trail Creek Rd ~1 mi east of Sun Valley Lodge; year-round.",
        "summary": "Hemingway memorial and mature riparian cottonwoods; intentionally retained as cultural context, not old growth.",
        "position_status": "user-accepted",
        "source": "Nick researched onX waypoint",
        "source_file": "onx-markups-08312026.gpx",
        "source_export_date": "2026-08-31"
      }
    },
    {
      "type": "Feature",
      "geometry": {
        "type": "Point",
        "coordinates": [
          -114.951,
          43.996
        ]
      },
      "properties": {
        "id": "nick-onx-old-growth:whitebark-pine-idaho-champion",
        "name": "Whitebark Pine  |idaho champion|",
        "old_growth_relevance": "ancient-tree-site",
        "strict_old_growth": true,
        "species": "Whitebark pine (Pinus albicaulis)",
        "age": ">1,270-year old individual documented in this landscape; Idaho champion by size noted at Imogene Lake",
        "confidence": "Verified",
        "access": "Imogene Lake access via Hell Roaring Lake Rd (FR 097); long subalpine hike.",
        "summary": "Research notes the world’s oldest documented whitebark pine in this landscape and Idaho champion by size at Imogene Lake.",
        "position_status": "user-accepted",
        "source": "Nick researched onX waypoint",
        "source_file": "onx-markups-08312026.gpx",
        "source_export_date": "2026-08-31"
      }
    },
    {
      "type": "Feature",
      "geometry": {
        "type": "Point",
        "coordinates": [
          -116.1236,
          46.8843
        ]
      },
      "properties": {
        "id": "nick-onx-old-growth:giant-cedar-grove",
        "name": "Giant Cedar Grove",
        "old_growth_relevance": "old-growth",
        "strict_old_growth": true,
        "species": "Western red cedar (Thuja plicata)",
        "age": null,
        "confidence": "User-researched",
        "access": "~10 mi N of Elk River via CR 382 and FS Rd 4764; Giant Red Cedar NRT #748.",
        "summary": "Trailhead for an accessible loop through old-growth western red cedar.",
        "position_status": "user-accepted",
        "source": "Nick researched onX waypoint",
        "source_file": "onx-markups-08312026.gpx",
        "source_export_date": "2026-08-31"
      }
    },
    {
      "type": "Feature",
      "geometry": {
        "type": "Point",
        "coordinates": [
          -114.912791,
          44.105301
        ]
      },
      "properties": {
        "id": "nick-onx-old-growth:redfish-lake-moraine-rna",
        "name": "Redfish Lake Moraine RNA",
        "old_growth_relevance": "mature-old-growth",
        "strict_old_growth": true,
        "species": "Douglas-fir; lodgepole pine; subalpine fir",
        "age": "400–500+ yr (Douglas-fir species range; site unconfirmed)",
        "confidence": "Partial",
        "access": "Hwy 75 to FR 214; Redfish Ridge Trail traverses the RNA.",
        "summary": "1,470-acre glacial lateral-moraine forest; late-successional and noted as undisturbed since 1996.",
        "position_status": "source-note-caveat",
        "source": "Nick researched onX waypoint",
        "source_file": "onx-markups-08312026.gpx",
        "source_export_date": "2026-08-31"
      }
    },
    {
      "type": "Feature",
      "geometry": {
        "type": "Point",
        "coordinates": [
          -114.298563,
          43.780102
        ]
      },
      "properties": {
        "id": "nick-onx-old-growth:schulman-limber-pine",
        "name": "Schulman Limber Pine",
        "old_growth_relevance": "historic-old-tree-site",
        "strict_old_growth": true,
        "species": "Limber pine (Pinus flexilis), historical individual now dead",
        "age": "1,659 yr crossdated (Schulman 1952/56, per user research)",
        "confidence": "Partial",
        "access": "Location intentionally imprecise; slopes above Ketchum/Sun Valley, likely Trail Creek corridor.",
        "summary": "Schulman’s 1,659-year limber pine helped inspire his bristlecone work; tree felled in 1953 and exact location is unmapped.",
        "position_status": "source-note-caveat",
        "source": "Nick researched onX waypoint",
        "source_file": "onx-markups-08312026.gpx",
        "source_export_date": "2026-08-31"
      }
    },
    {
      "type": "Feature",
      "geometry": {
        "type": "Point",
        "coordinates": [
          -116.1214,
          46.8871
        ]
      },
      "properties": {
        "id": "nick-onx-old-growth:champion-cedar",
        "name": "CHAMPION CEDAR",
        "old_growth_relevance": "old-growth",
        "strict_old_growth": true,
        "species": "Western red cedar (Thuja plicata)",
        "age": null,
        "confidence": "User-researched",
        "access": "Short marked footpath beyond Giant Cedar Grove trailhead.",
        "summary": "“Champion Tree of Idaho” western red cedar, noted at 18+ ft diameter; coordinate approximate ±0.25 mi.",
        "position_status": "source-note-caveat",
        "source": "Nick researched onX waypoint",
        "source_file": "onx-markups-08312026.gpx",
        "source_export_date": "2026-08-31"
      }
    },
    {
      "type": "Feature",
      "geometry": {
        "type": "Point",
        "coordinates": [
          -122.45885,
          43.7391
        ]
      },
      "properties": {
        "id": "nick-research-old-growth:greenwaters-trail",
        "name": "Greenwaters Trail Old Growth",
        "old_growth_relevance": "old-growth",
        "strict_old_growth": true,
        "subtype": "old-growth forest",
        "species": "Douglas-fir",
        "confidence": "Verified",
        "evidence_confidence": "High",
        "coordinate_confidence": "High",
        "coordinate_type": "park/trail access / representative old-growth location",
        "coordinate_uncertainty_miles": 0.15,
        "position_status": "source-note-caveat",
        "access": "Public Greenwaters trail/park access.",
        "summary": "Accessible old-growth Douglas-fir forest along the Middle Fork Willamette on the edge of Oakridge. The pin represents the trail/park old-growth area rather than an individual tree.",
        "source": "US Forest Service — Greenwaters Trail #4250",
        "source_url": "https://www.fs.usda.gov/r06/willamette/recreation/trails/greenwaters-trail-4250",
        "source_quality": "official-primary",
        "research_date": "2026-10-05",
        "land_manager": "US Forest Service / Willamette National Forest",
        "practical_rank": 5
      }
    },
    {
      "type": "Feature",
      "geometry": {
        "type": "Point",
        "coordinates": [
          -122.373056,
          43.762778
        ]
      },
      "properties": {
        "id": "nick-research-old-growth:salmon-creek-falls",
        "name": "Salmon Creek Falls Old-Growth Forest",
        "old_growth_relevance": "old-growth",
        "strict_old_growth": true,
        "subtype": "old-growth forest",
        "confidence": "Verified",
        "evidence_confidence": "Very High",
        "coordinate_confidence": "Very High",
        "coordinate_type": "official USFS facility/location point representing surrounding old-growth forest",
        "coordinate_uncertainty_miles": 0.05,
        "position_status": "source-note-caveat",
        "access": "Public Salmon Creek area. Developed campground/day-use facilities were closed for the 2026 season; verify current USFS conditions before visiting.",
        "summary": "Lush old-growth forest along Salmon Creek with pools and small falls. This is the same location as the prior approximate research pin near 43.76206, -122.37522; the official USFS point is used here.",
        "source": "US Forest Service — Salmon Creek Falls Campground and Day Use",
        "source_url": "https://www.fs.usda.gov/r06/willamette/recreation/salmon-creek-falls-campground-and-day-use",
        "source_quality": "official-primary",
        "research_date": "2026-10-05",
        "temporary_access_status": "Developed campground/day-use site closed for 2026 season; reopening anticipated spring 2027.",
        "temporary_access_status_date": "2026-10-05",
        "land_manager": "US Forest Service / Willamette National Forest"
      }
    },
    {
      "type": "Feature",
      "geometry": {
        "type": "Point",
        "coordinates": [
          -122.455,
          43.698
        ]
      },
      "properties": {
        "id": "nick-research-old-growth:larison-rock-lower",
        "name": "Larison Rock Lower Old Growth",
        "old_growth_relevance": "old-growth",
        "strict_old_growth": true,
        "subtype": "lower-trail old-growth forest",
        "species": "Douglas-fir; western hemlock",
        "confidence": "Verified",
        "evidence_confidence": "High",
        "coordinate_confidence": "Medium",
        "coordinate_type": "representative lower-trail old-growth pin; not an exact tree/grove coordinate",
        "coordinate_uncertainty_miles": 1,
        "position_status": "source-note-caveat",
        "access": "Larison Rock Trail #3607. Hiking, horses and mountain biking are supported uses; research noted seasonal MTB restrictions Nov–Mar.",
        "summary": "Lower Larison Rock Trail passes through substantial old-growth Douglas-fir and western hemlock forest. The pin represents the lower old-growth portion of the trail, not the summit or a single tree.",
        "source": "US Forest Service — Larison Rock Trail #3607",
        "source_url": "https://www.fs.usda.gov/r06/willamette/recreation/trails/larison-rock-trail-3607",
        "secondary_source_url": "https://www.fs.usda.gov/r06/willamette/recreation/larison-rock-trailhead",
        "source_quality": "official-primary",
        "research_date": "2026-10-05",
        "land_manager": "US Forest Service / Willamette National Forest",
        "practical_rank": 2
      }
    },
    {
      "type": "Feature",
      "geometry": {
        "type": "Point",
        "coordinates": [
          -122.44,
          43.688056
        ]
      },
      "properties": {
        "id": "nick-research-old-growth:larison-creek-corridor",
        "name": "Larison Creek Old-Growth Corridor",
        "old_growth_relevance": "old-growth",
        "strict_old_growth": true,
        "subtype": "old-growth corridor",
        "species": "Douglas-fir; western hemlock; western redcedar; incense cedar",
        "confidence": "Verified",
        "evidence_confidence": "Very High",
        "coordinate_confidence": "Very High for lower access; corridor extends beyond pin",
        "coordinate_type": "lower trailhead/access point for a linear old-growth corridor",
        "position_status": "source-note-caveat",
        "access": "Lower trailhead shown. Significant mature forest continues roughly 6.3 miles toward the upper trailhead at approximately 43.6845, -122.5291.",
        "summary": "A 6.3-mile old-growth corridor containing Douglas-fir, western hemlock, western redcedar and incense cedar. This point marks lower access; it does not represent one isolated grove.",
        "source": "US Forest Service — Larison Creek Trail #3646",
        "source_url": "https://www.fs.usda.gov/r06/willamette/recreation/trails/larison-creek-trail-3646",
        "secondary_source_url": "https://www.fs.usda.gov/r06/willamette/recreation/larison-creek-trailhead-lower",
        "tertiary_source_url": "https://www.fs.usda.gov/r06/willamette/recreation/larison-creek-trailhead-upper",
        "source_quality": "official-primary",
        "research_date": "2026-10-05",
        "land_manager": "US Forest Service / Willamette National Forest",
        "practical_rank": 1
      }
    },
    {
      "type": "Feature",
      "geometry": {
        "type": "Point",
        "coordinates": [
          -122.41,
          43.505
        ]
      },
      "properties": {
        "id": "nick-research-old-growth:jims-creek-heritage-landscape",
        "name": "Jim's Creek Heritage Pine–Oak Landscape",
        "old_growth_relevance": "heritage-tree-landscape",
        "strict_old_growth": false,
        "subtype": "heritage landscape / cultural fire landscape",
        "species": "Ponderosa pine; Oregon white oak",
        "confidence": "Verified",
        "evidence_confidence": "High",
        "coordinate_confidence": "Medium",
        "coordinate_type": "broad project-area center; intentionally not an individual culturally modified tree",
        "coordinate_uncertainty_miles": 1.5,
        "position_status": "source-note-caveat",
        "access": "Broad project-area location only. Do not use this pin to seek individual culturally modified trees.",
        "summary": "Restored Oregon white oak–ponderosa pine cultural landscape with large heritage ponderosa pines. Some trees show evidence of traditional Indigenous bark harvesting; the pin intentionally represents the broader landscape, not individual culturally modified trees.",
        "source": "US Forest Service — Jim's Creek project",
        "source_url": "https://www.fs.usda.gov/r06/willamette/projects/3922",
        "secondary_source_url": "https://swap.oregon.gov/success-story/jims-creek-restoration/",
        "source_quality": "official-primary",
        "research_date": "2026-10-05",
        "sensitive_location_policy": "Do not publish, infer, or geocode individual culturally modified / medicine-tree locations.",
        "land_manager": "US Forest Service / Willamette National Forest",
        "significance_rank": 6
      }
    },
    {
      "type": "Feature",
      "geometry": {
        "type": "Point",
        "coordinates": [
          -122.42,
          43.97
        ]
      },
      "properties": {
        "id": "nick-research-old-growth:tall-trees-grove-4269",
        "name": "Tall Trees Grove / Trail #4269",
        "old_growth_relevance": "old-growth",
        "strict_old_growth": true,
        "subtype": "giant trees / old-growth grove",
        "species": "Douglas-fir",
        "age": "Not specified; exceptional old-growth stand",
        "confidence": "Verified",
        "evidence_confidence": "Very High",
        "coordinate_confidence": "Medium",
        "coordinate_type": "estimated grove/trail area from USFS access directions",
        "coordinate_uncertainty_miles": 2,
        "position_status": "source-note-caveat",
        "access": "Use official USFS access information. Research road sequence: FR18 → FR1817 → FR1806 → FR427.",
        "summary": "Exceptional roughly 50-acre tall-tree forest with Douglas-firs about 270–310 feet tall, including specimens exceeding 300 feet. Pin is representative; navigate using official USFS access information.",
        "notable_dimensions": "Douglas-fir approximately 270–310 ft tall; specimens exceeding 300 ft",
        "source": "US Forest Service — Tall Trees Trail #4269",
        "source_url": "https://www.fs.usda.gov/r06/willamette/recreation/trails/tall-trees-trail-4269",
        "secondary_source_url": "https://www.fs.usda.gov/r06/willamette/recreation/tall-trees-trailhead",
        "source_quality": "official-primary",
        "research_date": "2026-10-05",
        "land_manager": "US Forest Service / Willamette National Forest",
        "significance_rank": 2,
        "practical_rank": 3
      }
    },
    {
      "type": "Feature",
      "geometry": {
        "type": "Point",
        "coordinates": [
          -122.32,
          43.98
        ]
      },
      "properties": {
        "id": "nick-research-old-growth:constitution-grove",
        "name": "Constitution Grove",
        "old_growth_relevance": "old-growth",
        "strict_old_growth": true,
        "subtype": "old-growth grove",
        "species": "Douglas-fir; western hemlock; western redcedar",
        "confidence": "Verified",
        "evidence_confidence": "High",
        "coordinate_confidence": "Medium",
        "coordinate_type": "estimated grove/access area from USFS directions",
        "coordinate_uncertainty_miles": 2,
        "position_status": "source-note-caveat",
        "access": "Short interpretive loop; forest-road travel is considerably longer than straight-line distance suggests.",
        "summary": "Classic old-growth Douglas-fir grove on an elevated river bench with western hemlock and western redcedar. USFS notes that many trees were already alive when the U.S. Constitution was signed.",
        "source": "US Forest Service — Constitution Grove Trail #3675",
        "source_url": "https://www.fs.usda.gov/r06/willamette/recreation/trails/constitution-grove-trail-3675",
        "secondary_source_url": "https://www.oregonhikers.org/field_guide/Constitution_Grove_Loop_Hike",
        "source_quality": "official-primary",
        "research_date": "2026-10-05",
        "land_manager": "US Forest Service / Willamette National Forest",
        "significance_rank": 5,
        "practical_rank": 4
      }
    },
    {
      "type": "Feature",
      "geometry": {
        "type": "Point",
        "coordinates": [
          -122.098,
          43.704
        ]
      },
      "properties": {
        "id": "nick-research-old-growth:joe-goddards-grove",
        "name": "Joe Goddards Grove",
        "old_growth_relevance": "ancient-tree-site",
        "strict_old_growth": true,
        "subtype": "ancient grove / giant trees",
        "species": "Douglas-fir; western redcedar; western hemlock; Pacific yew",
        "age": "Approximately 450–700 years",
        "confidence": "Verified",
        "evidence_confidence": "Very High",
        "coordinate_confidence": "Representative",
        "coordinate_type": "estimated grove area from USFS legal description and road information",
        "coordinate_uncertainty_miles": 1,
        "position_status": "source-note-caveat",
        "access": "Primary trailhead was closed for post–Cedar Creek Fire impacts and hazards as of 2026-10-05. Verify current USFS conditions before travel.",
        "summary": "Exceptional ancient grove containing Douglas-fir, western redcedar, western hemlock and giant Pacific yews. USFS documents trees roughly 450–700 years old and up to 116+ inches in diameter. Representative pin only.",
        "notable_dimensions": "Old-growth trees about 40–116+ in diameter; historically measured tree about 251 ft tall",
        "source": "US Forest Service — Joe Goddards Grove Trail #3690",
        "source_url": "https://www.fs.usda.gov/r06/willamette/recreation/trails/joe-goddards-grove-trail-3690",
        "source_quality": "official-primary",
        "research_date": "2026-10-05",
        "temporary_access_status": "Primary access closed for Cedar Creek Fire impacts/hazards as of research date; verify current conditions.",
        "temporary_access_status_date": "2026-10-05",
        "land_manager": "US Forest Service / Willamette National Forest",
        "significance_rank": 1
      }
    },
    {
      "type": "Feature",
      "geometry": {
        "type": "Point",
        "coordinates": [
          -122.07225,
          43.66315
        ]
      },
      "properties": {
        "id": "nick-research-old-growth:south-waldo-mountain-hemlock",
        "name": "South Waldo Mountain-Hemlock Old Growth",
        "old_growth_relevance": "old-growth",
        "strict_old_growth": true,
        "subtype": "high-elevation old-growth forest",
        "species": "Mountain hemlock; spruce",
        "confidence": "Partial",
        "evidence_confidence": "Medium-High",
        "coordinate_confidence": "Medium-High",
        "coordinate_type": "representative South Waldo trail/forest point",
        "coordinate_uncertainty_miles": 0.5,
        "position_status": "source-note-caveat",
        "access": "Access may be affected by Cedar Creek Fire closures depending on approach. Verify current conditions; no permanent open/closed state is asserted.",
        "summary": "High-elevation mountain-hemlock old growth south of Waldo Lake, with old spruce and mature subalpine forest. A distinct ecosystem from Oakridge's lower-elevation Douglas-fir and cedar forests.",
        "source": "Oregon Wild",
        "source_url": "https://oregonwild.org/hiking-in-old-growth-forests-seeing-the-forest-and-the-trees/",
        "secondary_source_url": "https://oldgrowthhikespnw.org/middle-fork-west/59-south-waldo",
        "source_quality": "secondary-research",
        "research_date": "2026-10-05",
        "significance_rank": 4
      }
    },
    {
      "type": "Feature",
      "geometry": {
        "type": "Point",
        "coordinates": [
          -122.0566,
          43.8443
        ]
      },
      "properties": {
        "id": "nick-research-old-growth:shale-ridge-cedar-grove",
        "name": "Shale Ridge Cedar Grove",
        "old_growth_relevance": "old-growth",
        "strict_old_growth": true,
        "subtype": "giant cedar grove",
        "species": "Western redcedar",
        "confidence": "Partial",
        "evidence_confidence": "Medium-High",
        "coordinate_confidence": "Medium-High",
        "coordinate_type": "mapped grove",
        "coordinate_uncertainty_miles": 0.1,
        "position_status": "user-accepted",
        "access": "Remote bottomland grove; verify current access conditions before visiting.",
        "summary": "Remote bottomland grove of enormous western redcedars along braided North Fork Middle Fork Willamette channels. Some cedars are reported around eight feet in diameter.",
        "notable_dimensions": "Western redcedars reported around 8 ft diameter",
        "source": "Trailkeepers of Oregon / Oregon Hikers — Shale Ridge Cedar Grove",
        "source_url": "https://www.oregonhikers.org/field_guide/Shale_Ridge_Cedar_Grove",
        "source_quality": "community-primary-for-location; no dedicated current USFS inventory page identified in research",
        "research_date": "2026-10-05",
        "significance_rank": 3
      }
    }
  ]
}
