{"type":"FeatureCollection","metadata":{"layer":"old-growth-research","scope":"Idaho","feature_count":15,"source":"Nick Hegyesi researched onX waypoints","source_export_date":"2026-08-31","accuracy_policy":"User accepted as authoritative for this personal map; source-level precision caveats remain explicit per feature.","classification_note":"strict_old_growth=false means context retained from the same research collection, not a confirmed old-growth stand/tree."},"features":[{"type":"Feature","geometry":{"type":"Point","coordinates":[-114.683,43.874]},"properties":{"id":"nick-onx-old-growth:subalp-whitebark","name":"SubAlp Whitebark","old_growth_relevance":"old-growth-context","strict_old_growth":false,"species":"Whitebark pine (Pinus albicaulis); lodgepole pine; subalpine fir","age":"300–700+ yr (typical for region; site unconfirmed)","confidence":"Partial","access":"Hwy 75 ~23 mi N of Ketchum; pull-outs at summit and Galena Overlook.","summary":"Drive-to krummholz whitebark pine at Galena Summit; accessible old subalpine habitat.","position_status":"source-note-caveat","source":"Nick researched onX waypoint","source_file":"onx-markups-08312026.gpx","source_export_date":"2026-08-31"}},{"type":"Feature","geometry":{"type":"Point","coordinates":[-114.36,43.68]},"properties":{"id":"nick-onx-old-growth:cottonwood-corridor","name":"Cottonwood Corridor!","old_growth_relevance":"mature-forest","strict_old_growth":false,"species":"Black cottonwood (Populus balsamifera ssp. trichocarpa)","age":"~100–150 yr (largest specimens; unconfirmed)","confidence":"Partial","access":"Wood River Trail through Ketchum; River Run area; year-round.","summary":"Mature black-cottonwood corridor through Ketchum; culturally associated with Hemingway.","position_status":"user-accepted","source":"Nick researched onX waypoint","source_file":"onx-markups-08312026.gpx","source_export_date":"2026-08-31"}},{"type":"Feature","geometry":{"type":"Point","coordinates":[-114.853,44.12]},"properties":{"id":"nick-onx-old-growth:redfish-lake-creek-salmon-river-riparian-corridor","name":"Redfish Lake Creek / Salmon River Riparian Corridor","old_growth_relevance":"riparian-context","strict_old_growth":false,"species":"Black/narrowleaf cottonwood; Booth & Geyer willow","age":"Not measured","confidence":"Partial","access":"FR 214 south from Stanley ~4 mi; Stanley–Redfish multi-use trail follows corridor.","summary":"Intact SNRA riparian corridor with salmon, steelhead, bull trout, and rare-sedge habitat.","position_status":"user-accepted","source":"Nick researched onX waypoint","source_file":"onx-markups-08312026.gpx","source_export_date":"2026-08-31"}},{"type":"Feature","geometry":{"type":"Point","coordinates":[-114.239662,43.819856]},"properties":{"id":"nick-onx-old-growth:ancient-limber-pines","name":"Ancient Limber Pines","old_growth_relevance":"ancient-tree-site","strict_old_growth":true,"species":"Limber pine (Pinus flexilis)","age":"1,500–2,000 yr (USFS/IDFG records cited in user research)","confidence":"Partial","access":"Visible from Trail Creek Rd near the pass; no defined trailhead for specific trees.","summary":"Government documents cited in the research report limber pines east of the RNA aged at 1,500–2,000 years.","position_status":"source-note-caveat","source":"Nick researched onX waypoint","source_file":"onx-markups-08312026.gpx","source_export_date":"2026-08-31"}},{"type":"Feature","geometry":{"type":"Point","coordinates":[-114.362,43.735]},"properties":{"id":"nick-onx-old-growth:snra-hq-north-fork-big-wood-forest","name":"SNRA HQ / North Fork Big Wood Forest","old_growth_relevance":"mature-old-growth","strict_old_growth":true,"species":"Douglas-fir; lodgepole pine; aspen","age":"300–500+ yr (Douglas-fir species range; site unconfirmed)","confidence":"Partial","access":"Hwy 75 ~8 mi N of Ketchum; SNRA HQ / North Fork Rd.","summary":"Gateway forest to the SNRA with mature/old conifer stands.","position_status":"source-note-caveat","source":"Nick researched onX waypoint","source_file":"onx-markups-08312026.gpx","source_export_date":"2026-08-31"}},{"type":"Feature","geometry":{"type":"Point","coordinates":[-114.28,43.811]},"properties":{"id":"nick-onx-old-growth:limber-whitebark","name":"Limber & Whitebark","old_growth_relevance":"old-growth","strict_old_growth":true,"species":"Limber pine (Pinus flexilis); whitebark pine (Pinus albicaulis)","age":"Ancient, large-diameter; no single age cited","confidence":"Verified","access":"Trail Creek Rd, FR 140, ford Trail Creek, then FS Trail 124 up Cold Canyon.","summary":"Basin Gulch Research Natural Area: intact limber/whitebark old-growth and avalanche-maintained pygmy forest.","position_status":"user-accepted","source":"Nick researched onX waypoint","source_file":"onx-markups-08312026.gpx","source_export_date":"2026-08-31"}},{"type":"Feature","geometry":{"type":"Point","coordinates":[-114.77,44.05]},"properties":{"id":"nick-onx-old-growth:sawtooth-valley-peatlands-rna-fens","name":"Sawtooth Valley Peatlands RNA (Fens)","old_growth_relevance":"ecological-context","strict_old_growth":false,"species":"Willow; sedge; bog birch; lodgepole pine on margins","age":"Not an old-tree site","confidence":"Verified","access":"West of Hwy 75 along moraine bases; no formal trailheads; sensitive habitat.","summary":"273-acre fen complex with rare boreal plants and salmon habitat; retained as ecological context, not old growth.","position_status":"user-accepted","source":"Nick researched onX waypoint","source_file":"onx-markups-08312026.gpx","source_export_date":"2026-08-31"}},{"type":"Feature","geometry":{"type":"Point","coordinates":[-114.52,43.78]},"properties":{"id":"nick-onx-old-growth:harriman-trail-forest-corridor-baker-prairie-creek","name":"Harriman Trail Forest Corridor (Baker/Prairie Creek)","old_growth_relevance":"mature-old-growth","strict_old_growth":true,"species":"Lodgepole pine; quaking aspen; Douglas-fir","age":"150–500+ yr (species range; stands unsurveyed)","confidence":"Partial","access":"Multiple access points off Hwy 75; non-motorized.","summary":"18-mile Big Wood River corridor offering an accessible cross-section of mature valley forest.","position_status":"user-accepted","source":"Nick researched onX waypoint","source_file":"onx-markups-08312026.gpx","source_export_date":"2026-08-31"}},{"type":"Feature","geometry":{"type":"Point","coordinates":[-114.214,43.838]},"properties":{"id":"nick-onx-old-growth:trail-creek-pass-summit","name":"Trail Creek Pass Summit","old_growth_relevance":"old-growth-context","strict_old_growth":false,"species":"Whitebark pine; limber pine; subalpine fir (krummholz)","age":"Several centuries plausible; no published measurement cited","confidence":"Partial","access":"Trail Creek Rd ~12 mi NE of Ketchum; paved then gravel; seasonal closure.","summary":"Drive-to 7,896-ft pass with krummholz five-needle pines in the same old-growth zone as Basin Gulch.","position_status":"user-accepted","source":"Nick researched onX waypoint","source_file":"onx-markups-08312026.gpx","source_export_date":"2026-08-31"}},{"type":"Feature","geometry":{"type":"Point","coordinates":[-114.339952,43.71232]},"properties":{"id":"nick-onx-old-growth:cultural-not-old-growth","name":"Cultural, not old-growth.","old_growth_relevance":"cultural-context","strict_old_growth":false,"species":"Cottonwood (Populus sp.); mixed riparian","age":"Mature, not ancient","confidence":"Partial","access":"Trail Creek Rd ~1 mi east of Sun Valley Lodge; year-round.","summary":"Hemingway memorial and mature riparian cottonwoods; intentionally retained as cultural context, not old growth.","position_status":"user-accepted","source":"Nick researched onX waypoint","source_file":"onx-markups-08312026.gpx","source_export_date":"2026-08-31"}},{"type":"Feature","geometry":{"type":"Point","coordinates":[-114.951,43.996]},"properties":{"id":"nick-onx-old-growth:whitebark-pine-idaho-champion","name":"Whitebark Pine  |idaho champion|","old_growth_relevance":"ancient-tree-site","strict_old_growth":true,"species":"Whitebark pine (Pinus albicaulis)","age":">1,270-year old individual documented in this landscape; Idaho champion by size noted at Imogene Lake","confidence":"Verified","access":"Imogene Lake access via Hell Roaring Lake Rd (FR 097); long subalpine hike.","summary":"Research notes the world’s oldest documented whitebark pine in this landscape and Idaho champion by size at Imogene Lake.","position_status":"user-accepted","source":"Nick researched onX waypoint","source_file":"onx-markups-08312026.gpx","source_export_date":"2026-08-31"}},{"type":"Feature","geometry":{"type":"Point","coordinates":[-116.1236,46.8843]},"properties":{"id":"nick-onx-old-growth:giant-cedar-grove","name":"Giant Cedar Grove","old_growth_relevance":"old-growth","strict_old_growth":true,"species":"Western red cedar (Thuja plicata)","age":null,"confidence":"User-researched","access":"~10 mi N of Elk River via CR 382 and FS Rd 4764; Giant Red Cedar NRT #748.","summary":"Trailhead for an accessible loop through old-growth western red cedar.","position_status":"user-accepted","source":"Nick researched onX waypoint","source_file":"onx-markups-08312026.gpx","source_export_date":"2026-08-31"}},{"type":"Feature","geometry":{"type":"Point","coordinates":[-114.912791,44.105301]},"properties":{"id":"nick-onx-old-growth:redfish-lake-moraine-rna","name":"Redfish Lake Moraine RNA","old_growth_relevance":"mature-old-growth","strict_old_growth":true,"species":"Douglas-fir; lodgepole pine; subalpine fir","age":"400–500+ yr (Douglas-fir species range; site unconfirmed)","confidence":"Partial","access":"Hwy 75 to FR 214; Redfish Ridge Trail traverses the RNA.","summary":"1,470-acre glacial lateral-moraine forest; late-successional and noted as undisturbed since 1996.","position_status":"source-note-caveat","source":"Nick researched onX waypoint","source_file":"onx-markups-08312026.gpx","source_export_date":"2026-08-31"}},{"type":"Feature","geometry":{"type":"Point","coordinates":[-114.298563,43.780102]},"properties":{"id":"nick-onx-old-growth:schulman-limber-pine","name":"Schulman Limber Pine","old_growth_relevance":"historic-old-tree-site","strict_old_growth":true,"species":"Limber pine (Pinus flexilis), historical individual now dead","age":"1,659 yr crossdated (Schulman 1952/56, per user research)","confidence":"Partial","access":"Location intentionally imprecise; slopes above Ketchum/Sun Valley, likely Trail Creek corridor.","summary":"Schulman’s 1,659-year limber pine helped inspire his bristlecone work; tree felled in 1953 and exact location is unmapped.","position_status":"source-note-caveat","source":"Nick researched onX waypoint","source_file":"onx-markups-08312026.gpx","source_export_date":"2026-08-31"}},{"type":"Feature","geometry":{"type":"Point","coordinates":[-116.1214,46.8871]},"properties":{"id":"nick-onx-old-growth:champion-cedar","name":"CHAMPION CEDAR","old_growth_relevance":"old-growth","strict_old_growth":true,"species":"Western red cedar (Thuja plicata)","age":null,"confidence":"User-researched","access":"Short marked footpath beyond Giant Cedar Grove trailhead.","summary":"“Champion Tree of Idaho” western red cedar, noted at 18+ ft diameter; coordinate approximate ±0.25 mi.","position_status":"source-note-caveat","source":"Nick researched onX waypoint","source_file":"onx-markups-08312026.gpx","source_export_date":"2026-08-31"}}]}
